ONEWEB-0574             
1 56063U 23043T   24106.87757120  .00000106  00000+0  22401-3 0  9990
2 56063  87.9303  41.6729 0001972  83.7560 276.3798 13.21826247 53601
ONEWEB-0575             
1 56064U 23043U   24107.19227043 -.00000334  00000+0 -90654-3 0  9993
2 56064  87.9150  26.4071 0002126  62.0759 298.0587 13.16593585 55660
ONEWEB-0576             
1 56065U 23043V   24107.17327501  .00000032  00000+0  50650-4 0  9998
2 56065  87.9147  26.4099 0002264  73.6114 286.5266 13.16592595 55658
ONEWEB-0577             
1 56066U 23043W   24106.34365089 -.00000055  00000+0 -17763-3 0  9994
2 56066  87.9148  26.5732 0002230  57.6121 302.5225 13.16593108 54663
ONEWEB-0578             
1 56067U 23043X   24106.86495608  .00000092  00000+0  19246-3 0  9990
2 56067  87.9307  41.6717 0002099  81.8126 278.3246 13.21825841 53568
ONEWEB-0579             
1 56068U 23043Y   24106.85549051  .00000127  00000+0  27718-3 0  9994
2 56068  87.9301  41.6730 0001472  79.5809 280.5491 13.21827886 53573
ONEWEB-0581             
1 56069U 23043Z   24107.18593725  .00000030  00000+0  44574-4 0  9992
2 56069  87.9149  26.4355 0001764  59.1629 300.9675 13.16592184 55652
ONEWEB-0609             
1 56070U 23043AA  24106.89457582 -.00000100  00000+0 -30041-3 0  9994
2 56070  87.9025  56.8797 0001910  84.5650 275.5699 13.15548040 52261
